OBJECT_NAME,OBJECT_ID,EPOCH,MEAN_MOTION,ECCENTRICITY,INCLINATION,RA_OF_ASC_NODE,ARG_OF_PERICENTER,MEAN_ANOMALY,EPHEMERIS_TYPE,CLASSIFICATION_TYPE,NORAD_CAT_ID,ELEMENT_SET_NO,REV_AT_EPOCH,BSTAR,MEAN_MOTION_DOT,MEAN_MOTION_DDOT
STARLINK-6164,2023-090BD,2026-07-10T06:48:56.934720,15.27579188,.00017059,43.0037,290.8997,279.1721,80.8938,0,U,57152,999,16929,.7953772E-5,-.43E-6,0
STARLINK-5879,2023-090BE,2026-07-10T05:49:57.711648,15.27580906,.00023174,43.0032,280.1436,288.1529,71.9070,0,U,57153,999,16891,.1908158E-4,.263E-5,0
STARLINK-6106,2023-090BF,2026-07-09T18:47:09.085920,15.27580263,.00011639,43.0024,294.0141,270.2799,89.7920,0,U,57154,999,16921,.35277975E-4,.709E-5,0
STARLINK-6108,2023-090BG,2026-07-10T07:46:18.609600,15.27575991,.00010858,43.0048,291.1943,247.4349,112.6388,0,U,57155,999,16929,-.16025403E-4,-.703E-5,0
STARLINK-6137,2023-090BH,2026-07-10T14:00:04.000032,15.55366483,.00018098,43.0042,286.8678,257.0108,201.4479,0,U,57156,999,560,.17680302E-1,.1373762E-1,0
METEOR-M2 3,2023-091A,2026-07-10T15:16:18.350400,14.24048703,.00051493,98.6070,246.1334,100.5205,259.6555,0,U,57166,999,15785,.11015117E-4,-.18E-6,0
2023-091C,2023-091C,2026-07-10T13:28:33.169728,15.26943512,.00114707,97.5016,253.9949,32.9862,327.2090,0,U,57168,999,16782,.21836298E-3,.5711E-4,0
2023-091D,2023-091D,2026-07-10T14:54:04.034592,15.24564427,.00102377,97.5102,253.2118,29.6036,330.5779,0,U,57169,999,16773,.22544701E-3,.5487E-4,0
2023-091E,2023-091E,2026-07-10T14:54:17.710848,15.24564409,.00089459,97.5108,253.2913,22.5153,337.6475,0,U,57170,999,16773,.22527591E-3,.5481E-4,0
2023-091F,2023-091F,2026-07-10T14:53:43.679616,15.24566582,.00112781,97.5104,253.2403,38.9458,321.2589,0,U,57171,999,16773,.22735174E-3,.5536E-4,0
UMKA 1 (RS40S),2023-091G,2026-07-10T13:56:41.647776,15.21089140,.00134854,97.5043,250.1901,44.6913,315.5407,0,U,57172,999,16756,.19188807E-3,.4205E-4,0
2023-091H,2023-091H,2026-07-10T14:43:41.893248,15.29152887,.0010047,97.5042,255.0012,40.5307,319.6679,0,U,57173,999,16788,.27259092E-3,.7647E-4,0
2023-091J,2023-091J,2026-07-10T14:02:12.942528,15.14092060,.00146692,97.5045,244.3480,70.6872,289.5945,0,U,57174,999,16717,.12751606E-3,.226E-4,0
CUBEBEL 2 (EU11S),2023-091K,2026-07-10T14:32:40.215264,15.29751727,.00100251,97.5044,255.0393,41.8300,318.3704,0,U,57175,999,16788,.31569822E-3,.9035E-4,0
SITRO-AIS 5 (KATYS),2023-091L,2026-07-10T14:51:02.484864,15.29998638,.00111572,97.5053,255.7475,28.3657,331.8188,0,U,57176,999,16792,.28375639E-3,.8177E-4,0
ZORKIY-2M 1,2023-091M,2026-07-10T13:34:47.922816,15.21212438,.00138571,97.5082,250.4593,41.6549,318.5739,0,U,57177,999,16755,.21685648E-3,.4779E-4,0
CUBESX-HSE 3 (RS42S),2023-091N,2026-07-10T13:32:54.876192,15.31811440,.0010144,97.5085,257.4544,18.5338,341.6271,0,U,57178,999,16800,.29965963E-3,.914E-4,0
2023-091P,2023-091P,2026-07-10T13:47:47.054688,15.16676194,.00158247,97.5084,247.3340,49.4270,310.8337,0,U,57179,999,16733,.1449052E-3,.2777E-4,0
MONITOR-3 (RS58S),2023-091Q,2026-07-10T13:49:25.992192,15.28316190,.00115055,97.5076,255.1990,25.6795,334.5014,0,U,57180,999,16786,.26821357E-3,.7335E-4,0
2023-091R,2023-091R,2026-07-10T14:45:32.902560,15.14641431,.00163617,97.5055,245.2545,60.3991,299.8869,0,U,57181,999,16723,.10534039E-3,.1886E-4,0
MONITOR-4 (RS57S),2023-091S,2026-07-10T14:51:40.716864,15.28402579,.00115089,97.5070,255.2150,25.9099,334.2714,0,U,57182,999,16787,.24980346E-3,.6844E-4,0
2023-091T,2023-091T,2026-07-10T14:06:11.160288,15.19205467,.00117978,97.5080,250.0730,37.0815,323.1232,0,U,57183,999,16752,.14977049E-3,.3088E-4,0
MONITOR-2 (RS39S),2023-091U,2026-07-10T13:35:17.433600,15.19128763,.00118349,97.5064,249.6990,39.2006,321.0083,0,U,57184,999,16750,.16374717E-3,.3375E-4,0
2023-091V,2023-091V,2026-07-10T13:33:02.342016,15.40400470,.00054423,97.5052,262.8655,1.9446,358.1820,0,U,57185,999,16837,.37632637E-3,.15145E-3,0
CSTP 1.2 (STC 1.2),2023-091W,2026-07-10T14:28:00.645600,15.29292154,.00179396,97.5142,258.0983,15.9741,344.2061,0,U,57186,999,16803,.20792409E-3,.5857E-4,0
SVYATOBOR 1 (RS60S),2023-091X,2026-07-10T14:05:57.236064,15.27014810,.00092279,97.5082,255.5380,20.7154,339.4457,0,U,57187,999,16788,.2345253E-3,.6149E-4,0
HORS 1,2023-091Y,2026-07-10T13:42:40.630176,15.27131449,.00086982,97.5059,255.2811,20.9453,339.2141,0,U,57188,999,16788,.23979657E-3,.6311E-4,0
VIZARD-METEO (RS38S),2023-091Z,2026-07-10T14:15:39.372480,15.36780272,.00060894,97.5085,261.5587,358.4364,1.6860,0,U,57189,999,16828,.33744665E-3,.12056E-3,0
POLYTECH-UNIVERSE 3 (RS46S),2023-091AB,2026-07-10T14:09:53.508960,15.19339788,.00164704,97.5039,249.2271,52.7419,307.5314,0,U,57191,999,16750,.16236907E-3,.3372E-4,0
SITRO-AIS 6 (CHIRKIN),2023-091AC,2026-07-10T14:05:07.928448,15.26383612,.00116654,97.5061,254.7086,32.3356,327.8595,0,U,57192,999,16785,.27553826E-3,.7106E-4,0
SITRO-AIS 8 (ANOKHIN),2023-091AD,2026-07-10T14:15:31.312224,15.32779117,.00100013,97.5049,257.4082,24.5775,335.5942,0,U,57193,999,16803,.32546089E-3,.10241E-3,0
SITRO-AIS 7 (FARTUSHNIY),2023-091AE,2026-07-10T14:16:40.261152,15.26059679,.00116238,97.5057,254.5294,33.4587,326.7383,0,U,57194,999,16784,.27153157E-3,.6933E-4,0
AVION KALUGA 650,2023-091AF,2026-07-10T14:10:48.506880,15.20602552,.00109065,97.5081,251.0741,37.6285,322.5711,0,U,57195,999,16758,.17560041E-3,.3784E-4,0
HORS 2,2023-091AG,2026-07-10T14:38:13.238016,15.32488022,.00073376,97.5083,258.9662,12.2097,347.9321,0,U,57196,999,16811,.28720294E-3,.8937E-4,0
A-SEANSAT-PG1,2023-091AH,2026-07-10T13:45:30.042432,15.37779793,.00061532,97.5073,261.6649,7.4600,352.6734,0,U,57197,999,16830,.35339611E-3,.13046E-3,0
SITRO-AIS 10 (BURDAEV),2023-091AK,2026-07-10T14:10:07.491072,15.39511980,.00053005,97.5074,262.7047,0.3997,359.7252,0,U,57199,999,16836,.36267684E-3,.1417E-3,0
2023-091AL,2023-091AL,2026-07-10T14:19:01.971840,15.46992186,.00041611,97.5045,266.7747,332.0476,28.0549,0,U,57200,999,16862,.39416179E-3,.19828E-3,0
SITRO-AIS 9 (SHCHUKIN),2023-091AM,2026-07-10T13:25:27.696576,15.38999386,.00055678,97.5072,262.3843,0.8382,359.2871,0,U,57201,999,16834,.37164471E-3,.14281E-3,0
CSTP 1.1 (STC 1.1),2023-091AN,2026-07-10T14:09:25.605216,15.19319428,.00100187,97.5108,250.2692,37.5876,322.6057,0,U,57202,999,16751,.15658918E-3,.3241E-4,0
UTMN 2 (RS27S),2023-091AP,2026-07-10T13:40:03.823680,15.32630499,.00072205,97.5081,259.1218,7.3090,352.8256,0,U,57203,999,16812,.27848459E-3,.8702E-4,0
SITRO-AIS 12 (SMIRENNIY),2023-091AQ,2026-07-10T14:39:09.743616,15.39295271,.00050846,97.5086,262.9186,353.7767,6.3414,0,U,57204,999,16837,.38212133E-3,.14829E-3,0
2023-091AS,2023-091AS,2026-07-10T13:54:54.955008,15.67521866,.00033506,97.5026,272.9327,254.3579,105.7312,0,U,57206,999,16905,.7730207E-3,.84432E-3,0
SITRO-AIS 11 (SHEFFER),2023-091AU,2026-07-10T14:49:00.234912,15.39736801,.00049917,97.5084,263.1872,353.4129,6.7050,0,U,57208,999,16839,.37026727E-3,.14575E-3,0
H2SAT (HEINRICH HERTZ),2023-093A,2026-07-10T01:37:53.987808,1.00273286,.00007987,0.0175,102.3909,32.1109,178.6751,0,U,57213,999,1114,0,.14E-6,0
SYRACUSE 4B,2023-093B,2026-07-10T05:01:09.998400,1.00270888,.00004608,0.0032,107.9864,123.6281,125.3494,0,U,57214,999,719,0,-.43E-6,0
KUZGTU 1 (RS47S),2023-091AV,2026-07-10T13:50:26.571552,15.30403829,.00105749,97.5057,256.3012,22.5573,337.6130,0,U,57217,999,16795,.27937941E-3,.815E-4,0
STARLINK-5525,2023-094A,2026-07-10T14:16:54.786720,15.27577262,.00003442,42.9992,56.5024,285.0991,74.9822,0,U,57218,999,16591,-.7554785E-5,-.469E-5,0
STARLINK-5520,2023-094B,2026-07-10T00:14:20.829984,15.27585006,.0000564,43.0091,63.2499,262.9386,97.1402,0,U,57219,999,16578,.22330917E-3,.5889E-4,0
STARLINK-5880,2023-094C,2026-07-09T22:49:27.660576,15.27576947,.00010413,43.0039,63.6744,262.5251,97.5482,0,U,57220,999,16577,.47988942E-4,.1059E-4,0
STARLINK-5870,2023-094E,2026-07-09T23:49:09.685344,15.27583755,.00010831,43.0035,59.7159,278.0519,82.0210,0,U,57222,999,16645,.60139973E-4,.1393E-4,0
STARLINK-5519,2023-094F,2026-07-10T01:31:51.614112,15.27587356,.00010711,43.0047,62.8029,277.9512,82.1219,0,U,57223,999,16579,.56382214E-4,.129E-4,0
STARLINK-5983,2023-094G,2026-07-10T01:28:52.936320,15.27567107,.00007483,43.0040,59.3689,295.9332,64.1442,0,U,57224,999,16583,.12486364E-3,.3174E-4,0
STARLINK-6294,2023-094H,2026-07-10T02:41:01.095936,15.27594081,.00014345,43.0037,59.7460,267.1002,92.9686,0,U,57225,999,16583,.5607735E-4,.1282E-4,0
STARLINK-6350,2023-094J,2026-07-09T09:04:56.237952,15.27582008,.00009945,43.0075,63.7047,272.5898,87.4840,0,U,57226,999,16572,.59784334E-4,.1383E-4,0
STARLINK-5996,2023-094K,2026-07-10T01:37:23.401344,15.27578053,.00038202,43.0070,62.8227,261.5620,98.4799,0,U,57227,999,16579,.11411094E-4,.51E-6,0
STARLINK-6230,2023-094L,2026-07-10T01:08:30.580224,15.27589371,.00013897,43.0036,59.2679,252.1133,107.9567,0,U,57228,999,16583,.55156561E-4,.1256E-4,0
STARLINK-6233,2023-094M,2026-07-10T00:52:04.030464,15.27583382,.00016628,43.0055,60.0447,286.7001,73.3668,0,U,57229,999,16582,.55025228E-4,.1252E-4,0
STARLINK-6250,2023-094N,2026-07-10T00:55:45.657696,15.27593292,.00017353,43.0033,60.0626,263.8025,96.2629,0,U,57230,999,16582,.56110014E-4,.1283E-4,0
STARLINK-5840,2023-094P,2026-07-10T00:40:58.377216,15.27583029,.0001053,43.0039,59.9840,284.9393,75.1342,0,U,57231,999,16582,.5423622E-4,.1231E-4,0
STARLINK-5872,2023-094Q,2026-07-10T00:33:33.628032,15.27589999,.00014391,43.0061,59.9370,263.7996,96.2691,0,U,57232,999,16648,.56921164E-4,.1305E-4,0
STARLINK-5866,2023-094R,2026-07-10T00:24:18.592704,15.27574151,.00002398,43.0020,59.8975,273.2319,86.8505,0,U,57233,999,16582,.13483415E-4,.109E-5,0
STARLINK-6368,2023-094S,2026-07-09T23:47:18.626784,15.27583013,.00011723,43.0030,59.6954,261.6942,98.3776,0,U,57234,999,16582,.37499215E-4,.77E-5,0
STARLINK-6360,2023-094T,2026-07-09T22:44:36.298176,15.27562851,.00010535,43.0038,60.2378,265.1996,94.8736,0,U,57235,999,16581,.23736818E-4,.391E-5,0
STARLINK-6315,2023-094U,2026-07-10T12:20:46.741632,15.27582733,.00008956,43.0041,46.3183,259.9684,100.1067,0,U,57236,999,16602,-.55901945E-4,-.18E-4,0
